IRIDIUM 144             
1 43249U 18030A   25161.50392865  .00000166  00000+0  52303-4 0  9996
2 43249  86.3960  85.7990 0002321  82.4072 277.7388 14.34218564376865
IRIDIUM 149             
1 43250U 18030B   25161.51026911  .00000041  00000+0  77133-5 0  9996
2 43250  86.3958  85.7676 0002344  82.1220 278.0242 14.34216507376882
IRIDIUM 157             
1 43251U 18030C   25161.52929851  .00000005  00000+0 -53385-5 0  9997
2 43251  86.3959  85.8047 0001941  87.1013 273.0405 14.34217635376861
IRIDIUM 140             
1 43252U 18030D   25161.05994750  .00000174  00000+0  55085-4 0  9990
2 43252  86.3960  86.0143 0002459  82.3781 277.7694 14.34217867376855
IRIDIUM 145             
1 43253U 18030E   25161.53564556  .00000215  00000+0  69847-4 0  9998
2 43253  86.3960  85.7884 0002433  74.7746 285.3719 14.34217505376854
IRIDIUM 146             
1 43254U 18030F   25161.51662280  .00000217  00000+0  70447-4 0  9990
2 43254  86.3960  85.8099 0002445  75.3150 284.8316 14.34217922376864
IRIDIUM 148             
1 43255U 18030G   25161.48489868  .00000095  00000+0  26834-4 0  9991
2 43255  86.3963  85.8606 0002121  80.5440 279.5996 14.34216878376890
IRIDIUM 142             
1 43256U 18030H   25161.52295662  .00000149  00000+0  46083-4 0  9992
2 43256  86.3959  85.7472 0002408  72.0429 288.1029 14.34218124376863
